[{"OBJECT_NAME":"ONEWEB-0171","OBJECT_ID":"2021-025AE","EPOCH":"2025-12-04T14:42:48.878208","MEAN_MOTION":13.13469583,"ECCENTRICITY":0.0001796,"INCLINATION":87.8975,"RA_OF_ASC_NODE":358.9149,"ARG_OF_PERICENTER":89.0677,"MEAN_ANOMALY":271.0657,"EPHEMERIS_TYPE":0,"CLASSIFICATION_TYPE":"U","NORAD_CAT_ID":48070,"ELEMENT_SET_NO":999,"REV_AT_EPOCH":22807,"BSTAR":-0.0002415,"MEAN_MOTION_DOT":-7.5e-7,"MEAN_MOTION_DDOT":0},{"OBJECT_NAME":"ONEWEB-0172","OBJECT_ID":"2021-025AF","EPOCH":"2025-12-04T14:13:33.803040","MEAN_MOTION":13.13470386,"ECCENTRICITY":0.000175,"INCLINATION":87.8992,"RA_OF_ASC_NODE":358.9,"ARG_OF_PERICENTER":86.6324,"MEAN_ANOMALY":273.5005,"EPHEMERIS_TYPE":0,"CLASSIFICATION_TYPE":"U","NORAD_CAT_ID":48071,"ELEMENT_SET_NO":999,"REV_AT_EPOCH":22896,"BSTAR":0.00093671,"MEAN_MOTION_DOT":3.55e-6,"MEAN_MOTION_DDOT":0},{"OBJECT_NAME":"ONEWEB-0174","OBJECT_ID":"2021-025AG","EPOCH":"2025-12-04T13:46:44.557248","MEAN_MOTION":13.13471052,"ECCENTRICITY":0.0001571,"INCLINATION":87.8981,"RA_OF_ASC_NODE":358.9086,"ARG_OF_PERICENTER":94.1313,"MEAN_ANOMALY":265.9996,"EPHEMERIS_TYPE":0,"CLASSIFICATION_TYPE":"U","NORAD_CAT_ID":48072,"ELEMENT_SET_NO":999,"REV_AT_EPOCH":22828,"BSTAR":9.4461e-5,"MEAN_MOTION_DOT":4.7e-7,"MEAN_MOTION_DDOT":0},{"OBJECT_NAME":"ONEWEB-0175","OBJECT_ID":"2021-025AH","EPOCH":"2025-12-04T14:30:37.469376","MEAN_MOTION":13.13470101,"ECCENTRICITY":0.0002016,"INCLINATION":87.8988,"RA_OF_ASC_NODE":358.8714,"ARG_OF_PERICENTER":86.1273,"MEAN_ANOMALY":274.0086,"EPHEMERIS_TYPE":0,"CLASSIFICATION_TYPE":"U","NORAD_CAT_ID":48073,"ELEMENT_SET_NO":999,"REV_AT_EPOCH":22794,"BSTAR":0.00024187,"MEAN_MOTION_DOT":1.01e-6,"MEAN_MOTION_DDOT":0},{"OBJECT_NAME":"ONEWEB-0177","OBJECT_ID":"2021-025AJ","EPOCH":"2025-12-04T14:47:41.216064","MEAN_MOTION":13.13469528,"ECCENTRICITY":0.0001531,"INCLINATION":87.899,"RA_OF_ASC_NODE":358.8882,"ARG_OF_PERICENTER":90.5952,"MEAN_ANOMALY":269.5353,"EPHEMERIS_TYPE":0,"CLASSIFICATION_TYPE":"U","NORAD_CAT_ID":48074,"ELEMENT_SET_NO":999,"REV_AT_EPOCH":22813,"BSTAR":-0.00040312,"MEAN_MOTION_DOT":-1.34e-6,"MEAN_MOTION_DDOT":0},{"OBJECT_NAME":"ONEWEB-0178","OBJECT_ID":"2021-025AK","EPOCH":"2025-12-04T13:25:00.016608","MEAN_MOTION":13.13470724,"ECCENTRICITY":0.0001788,"INCLINATION":87.8979,"RA_OF_ASC_NODE":358.9417,"ARG_OF_PERICENTER":83.516,"MEAN_ANOMALY":276.6173,"EPHEMERIS_TYPE":0,"CLASSIFICATION_TYPE":"U","NORAD_CAT_ID":48075,"ELEMENT_SET_NO":999,"REV_AT_EPOCH":22817,"BSTAR":-0.00071103,"MEAN_MOTION_DOT":-2.47e-6,"MEAN_MOTION_DDOT":0},{"OBJECT_NAME":"ONEWEB-0108","OBJECT_ID":"2021-025AL","EPOCH":"2025-12-04T14:16:01.108128","MEAN_MOTION":13.13469465,"ECCENTRICITY":0.0001778,"INCLINATION":87.8989,"RA_OF_ASC_NODE":358.8827,"ARG_OF_PERICENTER":99.9287,"MEAN_ANOMALY":260.2043,"EPHEMERIS_TYPE":0,"CLASSIFICATION_TYPE":"U","NORAD_CAT_ID":48076,"ELEMENT_SET_NO":999,"REV_AT_EPOCH":22810,"BSTAR":0.00074987,"MEAN_MOTION_DOT":2.87e-6,"MEAN_MOTION_DDOT":0},{"OBJECT_NAME":"ONEWEB-0169","OBJECT_ID":"2021-025AM","EPOCH":"2025-12-04T13:12:35.444736","MEAN_MOTION":13.13472331,"ECCENTRICITY":0.0001794,"INCLINATION":87.8986,"RA_OF_ASC_NODE":358.9124,"ARG_OF_PERICENTER":100.545,"MEAN_ANOMALY":259.5881,"EPHEMERIS_TYPE":0,"CLASSIFICATION_TYPE":"U","NORAD_CAT_ID":48077,"ELEMENT_SET_NO":999,"REV_AT_EPOCH":22675,"BSTAR":-0.00075276,"MEAN_MOTION_DOT":-2.62e-6,"MEAN_MOTION_DDOT":0},{"OBJECT_NAME":"ONEWEB-0176","OBJECT_ID":"2021-031A","EPOCH":"2025-12-04T11:16:22.296000","MEAN_MOTION":13.14503918,"ECCENTRICITY":0.0001839,"INCLINATION":87.8986,"RA_OF_ASC_NODE":328.494,"ARG_OF_PERICENTER":83.1183,"MEAN_ANOMALY":277.0156,"EPHEMERIS_TYPE":0,"CLASSIFICATION_TYPE":"U","NORAD_CAT_ID":48210,"ELEMENT_SET_NO":999,"REV_AT_EPOCH":22273,"BSTAR":-0.00055081,"MEAN_MOTION_DOT":-1.91e-6,"MEAN_MOTION_DDOT":0},{"OBJECT_NAME":"ONEWEB-0184","OBJECT_ID":"2021-031B","EPOCH":"2025-12-04T12:27:10.171872","MEAN_MOTION":13.14503052,"ECCENTRICITY":0.0002373,"INCLINATION":87.8998,"RA_OF_ASC_NODE":328.4643,"ARG_OF_PERICENTER":70.2018,"MEAN_ANOMALY":289.9368,"EPHEMERIS_TYPE":0,"CLASSIFICATION_TYPE":"U","NORAD_CAT_ID":48211,"ELEMENT_SET_NO":999,"REV_AT_EPOCH":22271,"BSTAR":0.0002929,"MEAN_MOTION_DOT":1.21e-6,"MEAN_MOTION_DDOT":0},{"OBJECT_NAME":"ONEWEB-0179","OBJECT_ID":"2021-031C","EPOCH":"2025-12-04T11:44:53.841120","MEAN_MOTION":13.14502808,"ECCENTRICITY":0.000167,"INCLINATION":87.899,"RA_OF_ASC_NODE":328.4778,"ARG_OF_PERICENTER":87.2613,"MEAN_ANOMALY":272.8708,"EPHEMERIS_TYPE":0,"CLASSIFICATION_TYPE":"U","NORAD_CAT_ID":48212,"ELEMENT_SET_NO":999,"REV_AT_EPOCH":22275,"BSTAR":0.00026474,"MEAN_MOTION_DOT":1.11e-6,"MEAN_MOTION_DDOT":0},{"OBJECT_NAME":"ONEWEB-0180","OBJECT_ID":"2021-031D","EPOCH":"2025-12-04T12:31:43.531104","MEAN_MOTION":13.14502632,"ECCENTRICITY":0.0001618,"INCLINATION":87.8997,"RA_OF_ASC_NODE":328.4694,"ARG_OF_PERICENTER":75.8313,"MEAN_ANOMALY":284.2996,"EPHEMERIS_TYPE":0,"CLASSIFICATION_TYPE":"U","NORAD_CAT_ID":48213,"ELEMENT_SET_NO":999,"REV_AT_EPOCH":22264,"BSTAR":0.00020699,"MEAN_MOTION_DOT":9.0e-7,"MEAN_MOTION_DDOT":0},{"OBJECT_NAME":"ONEWEB-0218","OBJECT_ID":"2021-031E","EPOCH":"2025-12-04T11:14:05.313120","MEAN_MOTION":13.14503087,"ECCENTRICITY":0.0002204,"INCLINATION":87.8993,"RA_OF_ASC_NODE":328.4811,"ARG_OF_PERICENTER":64.4622,"MEAN_ANOMALY":295.6736,"EPHEMERIS_TYPE":0,"CLASSIFICATION_TYPE":"U","NORAD_CAT_ID":48214,"ELEMENT_SET_NO":999,"REV_AT_EPOCH":22279,"BSTAR":-0.00049865,"MEAN_MOTION_DOT":-1.72e-6,"MEAN_MOTION_DDOT":0},{"OBJECT_NAME":"ONEWEB-0209","OBJECT_ID":"2021-031F","EPOCH":"2025-12-04T12:47:42.595296","MEAN_MOTION":13.14502611,"ECCENTRICITY":0.0001556,"INCLINATION":87.8983,"RA_OF_ASC_NODE":328.5052,"ARG_OF_PERICENTER":83.7608,"MEAN_ANOMALY":276.3699,"EPHEMERIS_TYPE":0,"CLASSIFICATION_TYPE":"U","NORAD_CAT_ID":48215,"ELEMENT_SET_NO":999,"REV_AT_EPOCH":22280,"BSTAR":-0.00027397,"MEAN_MOTION_DOT":-8.9e-7,"MEAN_MOTION_DDOT":0},{"OBJECT_NAME":"ONEWEB-0198","OBJECT_ID":"2021-031G","EPOCH":"2025-12-04T12:25:04.338048","MEAN_MOTION":13.14503056,"ECCENTRICITY":0.0001685,"INCLINATION":87.8984,"RA_OF_ASC_NODE":328.5054,"ARG_OF_PERICENTER":71.9624,"MEAN_ANOMALY":288.1689,"EPHEMERIS_TYPE":0,"CLASSIFICATION_TYPE":"U","NORAD_CAT_ID":48216,"ELEMENT_SET_NO":999,"REV_AT_EPOCH":22291,"BSTAR":0.0004015,"MEAN_MOTION_DOT":1.62e-6,"MEAN_MOTION_DDOT":0},{"OBJECT_NAME":"ONEWEB-0189","OBJECT_ID":"2021-031H","EPOCH":"2025-12-04T12:43:08.319360","MEAN_MOTION":13.1450382,"ECCENTRICITY":0.0001706,"INCLINATION":87.8988,"RA_OF_ASC_NODE":328.4765,"ARG_OF_PERICENTER":74.8868,"MEAN_ANOMALY":285.245,"EPHEMERIS_TYPE":0,"CLASSIFICATION_TYPE":"U","NORAD_CAT_ID":48217,"ELEMENT_SET_NO":999,"REV_AT_EPOCH":22265,"BSTAR":-0.00026633,"MEAN_MOTION_DOT":-8.6e-7,"MEAN_MOTION_DDOT":0},{"OBJECT_NAME":"ONEWEB-0196","OBJECT_ID":"2021-031J","EPOCH":"2025-12-04T12:11:10.883904","MEAN_MOTION":13.14502789,"ECCENTRICITY":0.0001653,"INCLINATION":87.8982,"RA_OF_ASC_NODE":328.4954,"ARG_OF_PERICENTER":82.0564,"MEAN_ANOMALY":278.0753,"EPHEMERIS_TYPE":0,"CLASSIFICATION_TYPE":"U","NORAD_CAT_ID":48218,"ELEMENT_SET_NO":999,"REV_AT_EPOCH":22265,"BSTAR":0.00061647,"MEAN_MOTION_DOT":2.41e-6,"MEAN_MOTION_DDOT":0}]
