ONEWEB-0171             
1 48070U 21025AE  25338.61306572 -.00000075  00000+0 -24150-3 0  9998
2 48070  87.8975 358.9149 0001796  89.0677 271.0657 13.13469583228074
ONEWEB-0172             
1 48071U 21025AF  25338.59275235  .00000355  00000+0  93671-3 0  9990
2 48071  87.8992 358.9000 0001750  86.6324 273.5005 13.13470386228967
ONEWEB-0174             
1 48072U 21025AG  25338.57412682  .00000047  00000+0  94461-4 0  9995
2 48072  87.8981 358.9086 0001571  94.1313 265.9996 13.13471052228283
ONEWEB-0175             
1 48073U 21025AH  25338.60460034  .00000101  00000+0  24187-3 0  9992
2 48073  87.8988 358.8714 0002016  86.1273 274.0086 13.13470101227946
ONEWEB-0177             
1 48074U 21025AJ  25338.61644926 -.00000134  00000+0 -40312-3 0  9994
2 48074  87.8990 358.8882 0001531  90.5952 269.5353 13.13469528228139
ONEWEB-0178             
1 48075U 21025AK  25338.55902797 -.00000247  00000+0 -71103-3 0  9998
2 48075  87.8979 358.9417 0001788  83.5160 276.6173 13.13470724228172
ONEWEB-0108             
1 48076U 21025AL  25338.59445727  .00000287  00000+0  74987-3 0  9993
2 48076  87.8989 358.8827 0001778  99.9287 260.2043 13.13469465228106
ONEWEB-0169             
1 48077U 21025AM  25338.55041024 -.00000262  00000+0 -75276-3 0  9999
2 48077  87.8986 358.9124 0001794 100.5450 259.5881 13.13472331226750
ONEWEB-0176             
1 48210U 21031A   25338.46970250 -.00000191  00000+0 -55081-3 0  9990
2 48210  87.8986 328.4940 0001839  83.1183 277.0156 13.14503918222737
ONEWEB-0184             
1 48211U 21031B   25338.51886773  .00000121  00000+0  29290-3 0  9997
2 48211  87.8998 328.4643 0002373  70.2018 289.9368 13.14503052222713
ONEWEB-0179             
1 48212U 21031C   25338.48951205  .00000111  00000+0  26474-3 0  9997
2 48212  87.8990 328.4778 0001670  87.2613 272.8708 13.14502808222754
ONEWEB-0180             
1 48213U 21031D   25338.52203161  .00000090  00000+0  20699-3 0  9993
2 48213  87.8997 328.4694 0001618  75.8313 284.2996 13.14502632222640
ONEWEB-0218             
1 48214U 21031E   25338.46811705 -.00000172  00000+0 -49865-3 0  9995
2 48214  87.8993 328.4811 0002204  64.4622 295.6736 13.14503087222796
ONEWEB-0209             
1 48215U 21031F   25338.53313189 -.00000089  00000+0 -27397-3 0  9990
2 48215  87.8983 328.5052 0001556  83.7608 276.3699 13.14502611222809
ONEWEB-0198             
1 48216U 21031G   25338.51741132  .00000162  00000+0  40150-3 0  9994
2 48216  87.8984 328.5054 0001685  71.9624 288.1689 13.14503056222919
ONEWEB-0189             
1 48217U 21031H   25338.52995740 -.00000086  00000+0 -26633-3 0  9999
2 48217  87.8988 328.4765 0001706  74.8868 285.2450 13.14503820222652
ONEWEB-0196             
1 48218U 21031J   25338.50776486  .00000241  00000+0  61647-3 0  9997
2 48218  87.8982 328.4954 0001653  82.0564 278.0753 13.14502789222651
